{
    "links": {
        "self": "http://www.neowsapp.com/rest/v1/neo/3841848?api_key=iIulBulltgU6a56xZRHN4H3l9WmuAYTsLGpBGhQ2"
    },
    "id": "3841848",
    "neo_reference_id": "3841848",
    "name": "(2019 JW5)",
    "designation": "2019 JW5",
    "nasa_jpl_url": "http://ssd.jpl.nasa.gov/sbdb.cgi?sstr=3841848",
    "absolute_magnitude_h": 27.4,
    "estimated_diameter": {
        "kilometers": {
            "estimated_diameter_min": 0.0088014652,
            "estimated_diameter_max": 0.0196806745
        },
        "meters": {
            "estimated_diameter_min": 8.801465209,
            "estimated_diameter_max": 19.6806745089
        },
        "miles": {
            "estimated_diameter_min": 0.0054689752,
            "estimated_diameter_max": 0.0122290004
        },
        "feet": {
            "estimated_diameter_min": 28.8761991163,
            "estimated_diameter_max": 64.5691441559
        }
    },
    "is_potentially_hazardous_asteroid": false,
    "close_approach_data": [
        {
            "close_approach_date": "2019-05-13",
            "close_approach_date_full": "2019-May-13 18:32",
            "epoch_date_close_approach": 1557772320000,
            "relative_velocity": {
                "kilometers_per_second": "12.2386754692",
                "kilometers_per_hour": "44059.231689039",
                "miles_per_hour": "27376.6931570031"
            },
            "miss_distance": {
                "astronomical": "0.0064472668",
                "lunar": "2.5079867852",
                "kilometers": "964497.380601716",
                "miles": "599310.8818910408"
            },
            "orbiting_body": "Moon"
        },
        {
            "close_approach_date": "2019-05-13",
            "close_approach_date_full": "2019-May-13 23:09",
            "epoch_date_close_approach": 1557788940000,
            "relative_velocity": {
                "kilometers_per_second": "11.4949241401",
                "kilometers_per_hour": "41381.7269042045",
                "miles_per_hour": "25712.9958088931"
            },
            "miss_distance": {
                "astronomical": "0.0060097242",
                "lunar": "2.3377827138",
                "kilometers": "899041.939607454",
                "miles": "558638.7568487052"
            },
            "orbiting_body": "Earth"
        },
        {
            "close_approach_date": "2021-09-15",
            "close_approach_date_full": "2021-Sep-15 12:45",
            "epoch_date_close_approach": 1631709900000,
            "relative_velocity": {
                "kilometers_per_second": "16.7995131383",
                "kilometers_per_hour": "60478.2472978159",
                "miles_per_hour": "37578.8309390235"
            },
            "miss_distance": {
                "astronomical": "0.245258593",
                "lunar": "95.405592677",
                "kilometers": "36690163.11199691",
                "miles": "22798210.190740958"
            },
            "orbiting_body": "Earth"
        },
        {
            "close_approach_date": "2040-09-11",
            "close_approach_date_full": "2040-Sep-11 13:08",
            "epoch_date_close_approach": 2230981680000,
            "relative_velocity": {
                "kilometers_per_second": "14.8112489407",
                "kilometers_per_hour": "53320.4961866597",
                "miles_per_hour": "33131.2827555386"
            },
            "miss_distance": {
                "astronomical": "0.193276691",
                "lunar": "75.184632799",
                "kilometers": "28913781.29424817",
                "miles": "17966190.592917946"
            },
            "orbiting_body": "Earth"
        },
        {
            "close_approach_date": "2156-05-08",
            "close_approach_date_full": "2156-May-08 03:35",
            "epoch_date_close_approach": 5880656100000,
            "relative_velocity": {
                "kilometers_per_second": "13.6354630887",
                "kilometers_per_hour": "49087.6671194784",
                "miles_per_hour": "30501.1673832115"
            },
            "miss_distance": {
                "astronomical": "0.0790936207",
                "lunar": "30.7674184523",
                "kilometers": "11832237.187307909",
                "miles": "7352211.2616267842"
            },
            "orbiting_body": "Earth"
        }
    ],
    "orbital_data": {
        "orbit_id": "2",
        "orbit_determination_date": "2019-07-27 14:02:03",
        "first_observation_date": "2019-05-10",
        "last_observation_date": "2019-05-12",
        "data_arc_in_days": 2,
        "observations_used": 19,
        "orbit_uncertainty": "7",
        "minimum_orbit_intersection": ".00590543",
        "jupiter_tisserand_invariant": "4.153",
        "epoch_osculation": "2459000.5",
        "eccentricity": ".4568384612997399",
        "semi_major_axis": "1.645131469362248",
        "inclination": "8.111655675473367",
        "ascending_node_longitude": "50.68015120603157",
        "orbital_period": "770.7248143729536",
        "perihelion_distance": ".8935721402630183",
        "perihelion_argument": "233.5520774794696",
        "aphelion_distance": "2.396690798461477",
        "perihelion_time": "2458657.351141000592",
        "mean_anomaly": "160.2823562133411",
        "mean_motion": ".4670927849817433",
        "equinox": "J2000",
        "orbit_class": {
            "orbit_class_type": "APO",
            "orbit_class_description": "Near-Earth asteroid orbits which cross the Earth’s orbit similar to that of 1862 Apollo",
            "orbit_class_range": "a (semi-major axis) > 1.0 AU; q (perihelion) < 1.017 AU"
        }
    },
    "is_sentry_object": false
}